[{"OBJECT_NAME":"STARLINK-5126","OBJECT_ID":"2022-125BA","EPOCH":"2026-03-09T16:23:25.508832","MEAN_MOTION":15.08836882,"ECCENTRICITY":0.00012159,"INCLINATION":53.2175,"RA_OF_ASC_NODE":204.0275,"ARG_OF_PERICENTER":88.3296,"MEAN_ANOMALY":271.7836,"EPHEMERIS_TYPE":0,"CLASSIFICATION_TYPE":"U","NORAD_CAT_ID":54012,"ELEMENT_SET_NO":999,"REV_AT_EPOCH":18960,"BSTAR":2.8520428e-5,"MEAN_MOTION_DOT":1.66e-6,"MEAN_MOTION_DDOT":0},{"OBJECT_NAME":"SL-14 R\/B","OBJECT_ID":"1981-094B","EPOCH":"2026-03-09T21:30:19.492416","MEAN_MOTION":13.58083744,"ECCENTRICITY":0.08704644,"INCLINATION":82.4854,"RA_OF_ASC_NODE":232.0333,"ARG_OF_PERICENTER":95.3527,"MEAN_ANOMALY":274.7433,"EPHEMERIS_TYPE":0,"CLASSIFICATION_TYPE":"U","NORAD_CAT_ID":12849,"ELEMENT_SET_NO":999,"REV_AT_EPOCH":17275,"BSTAR":0.00019877381,"MEAN_MOTION_DOT":2.264e-5,"MEAN_MOTION_DDOT":0}]
